start=new Date('2022-08-01T00:00:00.000Z').valueOf();
sats=[{"MEAN_MOTION_DOT":"0.00000992","LAUNCH_DATE":"2020-10-24","BSTAR":"0.00008545600000","OBJECT_NAME":"STARLINK-1833","MEAN_ANOMALY":"292.9476","EPHEMERIS_TYPE":"0","RA_OF_ASC_NODE":"129.8640","MEAN_MOTION_DDOT":"0.0000000000000","MEAN_MOTION":"15.06398177","REV_AT_EPOCH":"9792","TIME_SYSTEM":"UTC","PERIOD":"95.592","SITE":"AFETR","APOAPSIS":"548.251","NORAD_CAT_ID":"46759","ELEMENT_SET_NO":"999","PERIAPSIS":"546.187","FILE":"3526169","COUNTRY_CODE":"US","RCS_SIZE":"LARGE","TLE_LINE1":"1 46759U 20074W   22212.46911383  .00000992  00000-0  85456-4 0  9990","EPOCH":"2022-07-31T11:15:31.434912","GP_ID":"209264166","CLASSIFICATION_TYPE":"U","OBJECT_ID":"2020-074W","ECCENTRICITY":"0.00014900","TLE_LINE2":"2 46759  53.0559 129.8640 0001490  67.1670 292.9476 15.06398177 97924","SEMIMAJOR_AXIS":"6925.354","OBJECT_TYPE":"PAYLOAD","MEAN_ELEMENT_THEORY":"SGP4","REF_FRAME":"TEME","ARG_OF_PERICENTER":"67.1670","DECAY_DATE":null,"INCLINATION":"53.0559","CENTER_NAME":"EARTH"},{"OBJECT_TYPE":"PAYLOAD","MEAN_ELEMENT_THEORY":"SGP4","REF_FRAME":"TEME","ARG_OF_PERICENTER":"72.2856","DECAY_DATE":null,"INCLINATION":"53.0564","CENTER_NAME":"EARTH","EPOCH":"2022-07-31T19:29:09.271968","GP_ID":"209294480","CLASSIFICATION_TYPE":"U","OBJECT_ID":"2020-074X","ECCENTRICITY":"0.00016270","TLE_LINE2":"2 46760  53.0564 128.3258 0001627  72.2856 287.8310 15.06393003 97985","SEMIMAJOR_AXIS":"6925.370","REV_AT_EPOCH":"9798","TIME_SYSTEM":"UTC","PERIOD":"95.593","SITE":"AFETR","APOAPSIS":"548.362","NORAD_CAT_ID":"46760","ELEMENT_SET_NO":"999","PERIAPSIS":"546.108","FILE":"3526413","RCS_SIZE":"LARGE","COUNTRY_CODE":"US","TLE_LINE1":"1 46760U 20074X   22212.81191287  .00000043  00000-0  21808-4 0  9992","MEAN_MOTION_DOT":"0.00000043","BSTAR":"0.00002180800000","LAUNCH_DATE":"2020-10-24","MEAN_ANOMALY":"287.8310","OBJECT_NAME":"STARLINK-1896","EPHEMERIS_TYPE":"0","RA_OF_ASC_NODE":"128.3258","MEAN_MOTION_DDOT":"0.0000000000000","MEAN_MOTION":"15.06393003"},{"MEAN_MOTION":"15.42161516","MEAN_MOTION_DDOT":"0.0000000000000","EPHEMERIS_TYPE":"0","RA_OF_ASC_NODE":"78.8793","OBJECT_NAME":"STARLINK-1902","MEAN_ANOMALY":"284.4945","LAUNCH_DATE":"2020-10-24","BSTAR":"0.00017960000000","MEAN_MOTION_DOT":"0.00007412","TLE_LINE1":"1 46763U 20074AA  22212.81873651  .00007412  00000-0  17960-3 0  9997","COUNTRY_CODE":"US","RCS_SIZE":"LARGE","FILE":"3526413","PERIAPSIS":"438.051","ELEMENT_SET_NO":"999","NORAD_CAT_ID":"46763","SITE":"AFETR","APOAPSIS":"441.415","PERIOD":"93.375","TIME_SYSTEM":"UTC","REV_AT_EPOCH":"9868","TLE_LINE2":"2 46763  53.0529  78.8793 0002467  75.6333 284.4945 15.42161516 98689","SEMIMAJOR_AXIS":"6817.868","ECCENTRICITY":"0.00024670","OBJECT_ID":"2020-074AA","GP_ID":"209294730","EPOCH":"2022-07-31T19:38:58.834464","CLASSIFICATION_TYPE":"U","CENTER_NAME":"EARTH","INCLINATION":"53.0529","DECAY_DATE":null,"ARG_OF_PERICENTER":"75.6333","REF_FRAME":"TEME","MEAN_ELEMENT_THEORY":"SGP4","OBJECT_TYPE":"PAYLOAD"},{"OBJECT_TYPE":"PAYLOAD","DECAY_DATE":null,"INCLINATION":"53.0549","CENTER_NAME":"EARTH","MEAN_ELEMENT_THEORY":"SGP4","REF_FRAME":"TEME","ARG_OF_PERICENTER":"57.5857","OBJECT_ID":"2020-074AB","GP_ID":"209295980","EPOCH":"2022-07-31T19:18:31.878432","CLASSIFICATION_TYPE":"U","ECCENTRICITY":"0.00022320","SEMIMAJOR_AXIS":"6925.367","TLE_LINE2":"2 46764  53.0549 128.3527 0002232  57.5857 302.5348 15.06394013 97989","TIME_SYSTEM":"UTC","PERIOD":"95.593","SITE":"AFETR","APOAPSIS":"548.778","NORAD_CAT_ID":"46764","REV_AT_EPOCH":"9798","FILE":"3526413","COUNTRY_CODE":"US","RCS_SIZE":"LARGE","TLE_LINE1":"1 46764U 20074AB  22212.80453563  .00001783  00000-0  13862-3 0  9995","ELEMENT_SET_NO":"999","PERIAPSIS":"545.686","BSTAR":"0.00013862000000","LAUNCH_DATE":"2020-10-24","MEAN_ANOMALY":"302.5348","OBJECT_NAME":"STARLINK-1903","EPHEMERIS_TYPE":"0","RA_OF_ASC_NODE":"128.3527","MEAN_MOTION_DOT":"0.00001783","MEAN_MOTION_DDOT":"0.0000000000000","MEAN_MOTION":"15.06394013"},{"OBJECT_TYPE":"PAYLOAD","REF_FRAME":"TEME","MEAN_ELEMENT_THEORY":"SGP4","ARG_OF_PERICENTER":"77.0492","DECAY_DATE":null,"CENTER_NAME":"EARTH","INCLINATION":"53.0535","GP_ID":"209295727","CLASSIFICATION_TYPE":"U","EPOCH":"2022-07-31T19:02:36.871584","OBJECT_ID":"2020-074AC","ECCENTRICITY":"0.00016310","TLE_LINE2":"2 46765  53.0535 128.3917 0001631  77.0492 283.0679 15.06386460 97978","SEMIMAJOR_AXIS":"6925.390","REV_AT_EPOCH":"9797","PERIOD":"95.593","TIME_SYSTEM":"UTC","NORAD_CAT_ID":"46765","SITE":"AFETR","APOAPSIS":"548.385","ELEMENT_SET_NO":"999","PERIAPSIS":"546.126","COUNTRY_CODE":"US","RCS_SIZE":"LARGE","FILE":"3526413","TLE_LINE1":"1 46765U 20074AC  22212.79348231 -.00000265  00000-0  10834-5 0  9992","MEAN_MOTION_DOT":"-0.00000265","MEAN_ANOMALY":"283.0679","OBJECT_NAME":"STARLINK-1906","LAUNCH_DATE":"2020-10-24","BSTAR":"0.00000108340000","EPHEMERIS_TYPE":"0","RA_OF_ASC_NODE":"128.3917","MEAN_MOTION_DDOT":"0.0000000000000","MEAN_MOTION":"15.06386460"},{"REV_AT_EPOCH":"9762","SITE":"AFETR","APOAPSIS":"548.386","NORAD_CAT_ID":"46766","TIME_SYSTEM":"UTC","PERIOD":"95.592","PERIAPSIS":"546.054","ELEMENT_SET_NO":"999","TLE_LINE1":"1 46766U 20074AD  22212.18898815 -.00001415  00000-0 -76131-4 0  9994","FILE":"3526302","RCS_SIZE":"LARGE","COUNTRY_CODE":"US","MEAN_MOTION_DOT":"-0.00001415","EPHEMERIS_TYPE":"0","RA_OF_ASC_NODE":"131.1078","BSTAR":"-0.00007613100000","LAUNCH_DATE":"2020-10-24","MEAN_ANOMALY":"291.7713","OBJECT_NAME":"STARLINK-1916","MEAN_MOTION":"15.06397869","MEAN_MOTION_DDOT":"0.0000000000000","OBJECT_TYPE":"PAYLOAD","ARG_OF_PERICENTER":"68.3455","MEAN_ELEMENT_THEORY":"SGP4","REF_FRAME":"TEME","INCLINATION":"53.0562","CENTER_NAME":"EARTH","DECAY_DATE":null,"EPOCH":"2022-07-31T04:32:08.576160","GP_ID":"209271529","CLASSIFICATION_TYPE":"U","OBJECT_ID":"2020-074AD","SEMIMAJOR_AXIS":"6925.355","TLE_LINE2":"2 46766  53.0562 131.1078 0001684  68.3455 291.7713 15.06397869 97621","ECCENTRICITY":"0.00016840"},{"FILE":"3526413","COUNTRY_CODE":"US","RCS_SIZE":"LARGE","TLE_LINE1":"1 46767U 20074AE  22212.81560099 -.00000253  00000-0  19344-5 0  9997","ELEMENT_SET_NO":"999","PERIAPSIS":"546.029","TIME_SYSTEM":"UTC","PERIOD":"95.593","SITE":"AFETR","APOAPSIS":"548.447","NORAD_CAT_ID":"46767","REV_AT_EPOCH":"9798","MEAN_MOTION_DDOT":"0.0000000000000","MEAN_MOTION":"15.06392111","BSTAR":"0.00000193440000","LAUNCH_DATE":"2020-10-24","OBJECT_NAME":"STARLINK-1917","MEAN_ANOMALY":"292.3950","RA_OF_ASC_NODE":"128.3108","EPHEMERIS_TYPE":"0","MEAN_MOTION_DOT":"-0.00000253","DECAY_DATE":null,"INCLINATION":"53.0545","CENTER_NAME":"EARTH","MEAN_ELEMENT_THEORY":"SGP4","REF_FRAME":"TEME","ARG_OF_PERICENTER":"67.7224","OBJECT_TYPE":"PAYLOAD","ECCENTRICITY":"0.00017460","SEMIMAJOR_AXIS":"6925.373","TLE_LINE2":"2 46767  53.0545 128.3108 0001746  67.7224 292.3950 15.06392111 97985","OBJECT_ID":"2020-074AE","GP_ID":"209295230","CLASSIFICATION_TYPE":"U","EPOCH":"2022-07-31T19:34:27.925536"},{"OBJECT_TYPE":"PAYLOAD","DECAY_DATE":null,"INCLINATION":"53.0543","CENTER_NAME":"EARTH","MEAN_ELEMENT_THEORY":"SGP4","REF_FRAME":"TEME","ARG_OF_PERICENTER":"68.7702","OBJECT_ID":"2020-074AF","GP_ID":"209295481","CLASSIFICATION_TYPE":"U","EPOCH":"2022-07-31T19:39:46.265472","ECCENTRICITY":"0.00016820","TLE_LINE2":"2 46768  53.0543 128.2817 0001682  68.7702 291.3467 15.06396812 97985","SEMIMAJOR_AXIS":"6925.358","TIME_SYSTEM":"UTC","PERIOD":"95.592","APOAPSIS":"548.388","SITE":"AFETR","NORAD_CAT_ID":"46768","REV_AT_EPOCH":"9798","FILE":"3526413","RCS_SIZE":"LARGE","COUNTRY_CODE":"US","TLE_LINE1":"1 46768U 20074AF  22212.81928548  .00000185  00000-0  31348-4 0  9995","ELEMENT_SET_NO":"999","PERIAPSIS":"546.058","LAUNCH_DATE":"2020-10-24","BSTAR":"0.00003134800000","MEAN_ANOMALY":"291.3467","OBJECT_NAME":"STARLINK-1918","EPHEMERIS_TYPE":"0","RA_OF_ASC_NODE":"128.2817","MEAN_MOTION_DOT":"0.00000185","MEAN_MOTION_DDOT":"0.0000000000000","MEAN_MOTION":"15.06396812"},{"CENTER_NAME":"EARTH","INCLINATION":"53.0557","DECAY_DATE":null,"ARG_OF_PERICENTER":"59.3241","REF_FRAME":"TEME","MEAN_ELEMENT_THEORY":"SGP4","OBJECT_TYPE":"PAYLOAD","SEMIMAJOR_AXIS":"6925.384","TLE_LINE2":"2 46770  53.0557 130.2885 0001602  59.3241 300.7906 15.06388503 97922","ECCENTRICITY":"0.00016020","OBJECT_ID":"2020-074AH","GP_ID":"209264167","EPOCH":"2022-07-31T11:52:46.380864","CLASSIFICATION_TYPE":"U","TLE_LINE1":"1 46770U 20074AH  22212.49498126  .00000128  00000-0  27481-4 0  9996","COUNTRY_CODE":"US","RCS_SIZE":"LARGE","FILE":"3526169","PERIAPSIS":"546.139","ELEMENT_SET_NO":"999","NORAD_CAT_ID":"46770","SITE":"AFETR","APOAPSIS":"548.358","PERIOD":"95.593","TIME_SYSTEM":"UTC","REV_AT_EPOCH":"9792","MEAN_MOTION":"15.06388503","MEAN_MOTION_DDOT":"0.0000000000000","EPHEMERIS_TYPE":"0","RA_OF_ASC_NODE":"130.2885","OBJECT_NAME":"STARLINK-1932","MEAN_ANOMALY":"300.7906","LAUNCH_DATE":"2020-10-24","BSTAR":"0.00002748100000","MEAN_MOTION_DOT":"0.00000128"},{"PERIAPSIS":"546.029","ELEMENT_SET_NO":"999","TLE_LINE1":"1 46772U 20074AK  22212.49397377  .00000039  00000-0  21524-4 0  9997","FILE":"3526169","COUNTRY_CODE":"US","RCS_SIZE":"LARGE","REV_AT_EPOCH":"9793","APOAPSIS":"548.394","SITE":"AFETR","NORAD_CAT_ID":"46772","TIME_SYSTEM":"UTC","PERIOD":"95.592","MEAN_MOTION":"15.06400673","MEAN_MOTION_DDOT":"0.0000000000000","MEAN_MOTION_DOT":"0.00000039","EPHEMERIS_TYPE":"0","RA_OF_ASC_NODE":"129.7350","LAUNCH_DATE":"2020-10-24","BSTAR":"0.00002152400000","MEAN_ANOMALY":"286.6778","OBJECT_NAME":"STARLINK-1936","ARG_OF_PERICENTER":"73.4398","MEAN_ELEMENT_THEORY":"SGP4","REF_FRAME":"TEME","INCLINATION":"53.0552","CENTER_NAME":"EARTH","DECAY_DATE":null,"OBJECT_TYPE":"PAYLOAD","TLE_LINE2":"2 46772  53.0552 129.7350 0001708  73.4398 286.6778 15.06400673 97939","SEMIMAJOR_AXIS":"6925.346","ECCENTRICITY":"0.00017080","GP_ID":"209264417","CLASSIFICATION_TYPE":"U","EPOCH":"2022-07-31T11:51:19.333728","OBJECT_ID":"2020-074AK"}];
